{
  "norad_id": 54164,
  "name": "STARLINK-5278",
  "history": [
    {
      "epoch": "2026-03-28T19:49:56.579520",
      "apogee_km": 540.5857376289796,
      "perigee_km": 538.8936249927319,
      "latitude_deg": 50.22482535439405,
      "longitude_deg": 35.72953279991634,
      "semi_major_axis_km": 6917.876681310856,
      "eccentricity": 0.0001223,
      "inclination_deg": 53.217,
      "raan_deg": 278.4208,
      "arg_perigee_deg": 85.8187,
      "mean_anomaly_deg": 274.2945,
      "mean_motion_rev_day": 15.08841213
    }
  ]
}